SOYUZ-MS 28             
1 66664U 25275A   26005.53262344  .00012388  00000+0  23158-3 0  9994
2 66664  51.6326  24.6699 0007562 343.7680  16.3066 15.49114570  1280
1998-067XS              
1 66906U 98067XS  26005.56531310  .00027185  00000+0  44965-3 0  9997
2 66906  51.6316  24.1401 0002463 329.0837  31.0008 15.51999087  5315
1998-067XT              
1 66907U 98067XT  26005.34218786  .00090644  00000+0  13190-2 0  9998
2 66907  51.6312  24.8999 0003876  10.4657 349.6414 15.54979680  5286
1998-067XU              
1 66908U 98067XU  26005.40540667  .00095543  00000+0  13889-2 0  9990
2 66908  51.6305  24.5711 0003785   8.0344 352.0707 15.54982540  5296
SILVERSAT               
1 66909U 98067XV  26005.52920379  .00100146  00000+0  14248-2 0  9992
2 66909  51.6315  23.8985 0003947  17.1564 342.9559 15.55546038  5313
1998-067XW              
1 66910U 98067XW  26005.33604344  .00094853  00000+0  13658-2 0  9995
2 66910  51.6301  24.8576 0003072 348.0526  12.0391 15.55248947  5283
1998-067XX              
1 66911U 98067XX  26005.51971312  .00116634  00000+0  16158-2 0  9998
2 66911  51.6303  23.8342 0002979   5.2842 354.8181 15.56195124  5300
1998-067XY              
1 66912U 98067XY  26005.35310433  .00067371  00000+0  10252-2 0  9994
2 66912  51.6318  24.9729 0003700 357.3172   2.7798 15.53885560  5274
